line1,line2,validFromUtcTime
1 00000U 00000E   26001.00000000  .00000000  00000-0  27772-4 0    01,2 00000  88.8591 105.3339 0010062 270.1352  67.3291 13.55297477    02,2026-01-01T00:00:00Z
1 00000U 00000E   26002.00000000  .00000000  00000-0  27772-4 0    02,2 00000  88.8591 105.2178 0010062 267.2255 266.3985 13.55297515    05,2026-01-02T00:00:00Z
